STARLINK-2156           
1 47742U 21017W   23250.65145691  .00012577  00000+0  86190-3 0  9992
2 47742  53.0529 344.8992 0002051  80.7962 279.3259 15.06391360140151
STARLINK-2157           
1 47743U 21017X   23250.41187840  .00012631  00000+0  86542-3 0  9991
2 47743  53.0550 345.9734 0001219  88.6101 271.5028 15.06396794140096
STARLINK-2158           
1 47744U 21017Y   23250.31876385  .00000135  00000+0  27927-4 0  9999
2 47744  53.0540 346.3439 0001174  99.6584 260.4538 15.06396443140106
STARLINK-2159           
1 47745U 21017Z   23251.01542913  .00002924  00000+0  21507-3 0  9990
2 47745  53.0562 353.2614 0001086  87.4042 272.7072 15.06408586139388
STARLINK-2160           
1 47746U 21017AA  23250.67633457  .00025409  00000+0  17188-2 0  9998
2 47746  53.0543 354.7884 0001018  91.0434 269.0672 15.06394205139954
STARLINK-2161           
1 47747U 21017AB  23250.67356569  .00029630  00000+0  19998-2 0  9996
2 47747  53.0550 344.7988 0001262 106.2076 253.9052 15.06398657140130
STARLINK-2162           
1 47748U 21017AC  23250.99793236  .00028723  00000+0  19389-2 0  9994
2 47748  53.0536 343.3393 0001616  98.2500 261.8672 15.06407598139527
STARLINK-2163           
1 47749U 21017AD  23250.41554591 -.00003187  00000+0 -19517-3 0  9994
2 47749  53.0546 345.9584 0001423  97.8414 262.2736 15.06393081140062
STARLINK-2164           
1 47750U 21017AE  23250.39345654  .00007795  00000+0  54163-3 0  9994
2 47750  53.0536 346.0565 0004160  49.4432 310.6918 15.06397383140067
STARLINK-2168           
1 47751U 21017AF  23250.22479771 -.00001900  00000+0 -10867-3 0  9992
2 47751  53.0545 336.8154 0001485  79.1507 280.9649 15.06398986140182
STARLINK-2169           
1 47752U 21017AG  23250.65652342  .00024282  00000+0  16438-2 0  9992
2 47752  53.0548 349.8756 0001162  97.6351 262.4770 15.06392142140089
STARLINK-2170           
1 47753U 21017AH  23251.03017941  .00024365  00000+0  16485-2 0  9990
2 47753  53.0544 353.1969 0001592  99.4240 260.6929 15.06410828139383
STARLINK-2171           
1 47754U 21017AJ  23251.00069339  .00008997  00000+0  62201-3 0  9997
2 47754  53.0548 353.3283 0001186  67.7286 292.3829 15.06405814139386
STARLINK-2174           
1 47756U 21017AL  23250.99700923  .00031240  00000+0  21063-2 0  9994
2 47756  53.0543 353.3479 0001187 101.4597 258.6525 15.06409794139381
STARLINK-2175           
1 47757U 21017AM  23250.31878852  .00018262  00000+0  12408-2 0  9990
2 47757  53.0550 356.3893 0000296  58.4003 301.7015 15.06426943139903
STARLINK-2178           
1 47760U 21017AQ  23251.01451495  .00029485  00000+0  19898-2 0  9991
2 47760  53.0551   3.2698 0001404 103.7743 256.3403 15.06404965139249
