[{"OBJECT_NAME":"STARLINK-2156","OBJECT_ID":"2021-017W","EPOCH":"2023-09-07T15:38:05.877024","MEAN_MOTION":15.0639136,"ECCENTRICITY":0.0002051,"INCLINATION":53.0529,"RA_OF_ASC_NODE":344.8992,"ARG_OF_PERICENTER":80.7962,"MEAN_ANOMALY":279.3259,"EPHEMERIS_TYPE":0,"CLASSIFICATION_TYPE":"U","NORAD_CAT_ID":47742,"ELEMENT_SET_NO":999,"REV_AT_EPOCH":14015,"BSTAR":0.0008619,"MEAN_MOTION_DOT":0.00012577,"MEAN_MOTION_DDOT":0},{"OBJECT_NAME":"STARLINK-2157","OBJECT_ID":"2021-017X","EPOCH":"2023-09-07T09:53:06.293760","MEAN_MOTION":15.06396794,"ECCENTRICITY":0.0001219,"INCLINATION":53.055,"RA_OF_ASC_NODE":345.9734,"ARG_OF_PERICENTER":88.6101,"MEAN_ANOMALY":271.5028,"EPHEMERIS_TYPE":0,"CLASSIFICATION_TYPE":"U","NORAD_CAT_ID":47743,"ELEMENT_SET_NO":999,"REV_AT_EPOCH":14009,"BSTAR":0.00086542,"MEAN_MOTION_DOT":0.00012631,"MEAN_MOTION_DDOT":0},{"OBJECT_NAME":"STARLINK-2158","OBJECT_ID":"2021-017Y","EPOCH":"2023-09-07T07:39:01.196640","MEAN_MOTION":15.06396443,"ECCENTRICITY":0.0001174,"INCLINATION":53.054,"RA_OF_ASC_NODE":346.3439,"ARG_OF_PERICENTER":99.6584,"MEAN_ANOMALY":260.4538,"EPHEMERIS_TYPE":0,"CLASSIFICATION_TYPE":"U","NORAD_CAT_ID":47744,"ELEMENT_SET_NO":999,"REV_AT_EPOCH":14010,"BSTAR":2.7927e-5,"MEAN_MOTION_DOT":1.35e-6,"MEAN_MOTION_DDOT":0},{"OBJECT_NAME":"STARLINK-2159","OBJECT_ID":"2021-017Z","EPOCH":"2023-09-08T00:22:13.076832","MEAN_MOTION":15.06408586,"ECCENTRICITY":0.0001086,"INCLINATION":53.0562,"RA_OF_ASC_NODE":353.2614,"ARG_OF_PERICENTER":87.4042,"MEAN_ANOMALY":272.7072,"EPHEMERIS_TYPE":0,"CLASSIFICATION_TYPE":"U","NORAD_CAT_ID":47745,"ELEMENT_SET_NO":999,"REV_AT_EPOCH":13938,"BSTAR":0.00021507,"MEAN_MOTION_DOT":2.924e-5,"MEAN_MOTION_DDOT":0},{"OBJECT_NAME":"STARLINK-2160","OBJECT_ID":"2021-017AA","EPOCH":"2023-09-07T16:13:55.306848","MEAN_MOTION":15.06394205,"ECCENTRICITY":0.0001018,"INCLINATION":53.0543,"RA_OF_ASC_NODE":354.7884,"ARG_OF_PERICENTER":91.0434,"MEAN_ANOMALY":269.0672,"EPHEMERIS_TYPE":0,"CLASSIFICATION_TYPE":"U","NORAD_CAT_ID":47746,"ELEMENT_SET_NO":999,"REV_AT_EPOCH":13995,"BSTAR":0.0017188,"MEAN_MOTION_DOT":0.00025409,"MEAN_MOTION_DDOT":0},{"OBJECT_NAME":"STARLINK-2161","OBJECT_ID":"2021-017AB","EPOCH":"2023-09-07T16:09:56.075616","MEAN_MOTION":15.06398657,"ECCENTRICITY":0.0001262,"INCLINATION":53.055,"RA_OF_ASC_NODE":344.7988,"ARG_OF_PERICENTER":106.2076,"MEAN_ANOMALY":253.9052,"EPHEMERIS_TYPE":0,"CLASSIFICATION_TYPE":"U","NORAD_CAT_ID":47747,"ELEMENT_SET_NO":999,"REV_AT_EPOCH":14013,"BSTAR":0.0019998,"MEAN_MOTION_DOT":0.0002963,"MEAN_MOTION_DDOT":0},{"OBJECT_NAME":"STARLINK-2162","OBJECT_ID":"2021-017AC","EPOCH":"2023-09-07T23:57:01.355904","MEAN_MOTION":15.06407598,"ECCENTRICITY":0.0001616,"INCLINATION":53.0536,"RA_OF_ASC_NODE":343.3393,"ARG_OF_PERICENTER":98.25,"MEAN_ANOMALY":261.8672,"EPHEMERIS_TYPE":0,"CLASSIFICATION_TYPE":"U","NORAD_CAT_ID":47748,"ELEMENT_SET_NO":999,"REV_AT_EPOCH":13952,"BSTAR":0.0019389,"MEAN_MOTION_DOT":0.00028723,"MEAN_MOTION_DDOT":0},{"OBJECT_NAME":"STARLINK-2163","OBJECT_ID":"2021-017AD","EPOCH":"2023-09-07T09:58:23.166624","MEAN_MOTION":15.06393081,"ECCENTRICITY":0.0001423,"INCLINATION":53.0546,"RA_OF_ASC_NODE":345.9584,"ARG_OF_PERICENTER":97.8414,"MEAN_ANOMALY":262.2736,"EPHEMERIS_TYPE":0,"CLASSIFICATION_TYPE":"U","NORAD_CAT_ID":47749,"ELEMENT_SET_NO":999,"REV_AT_EPOCH":14006,"BSTAR":-0.00019517,"MEAN_MOTION_DOT":-3.187e-5,"MEAN_MOTION_DDOT":0},{"OBJECT_NAME":"STARLINK-2164","OBJECT_ID":"2021-017AE","EPOCH":"2023-09-07T09:26:34.645056","MEAN_MOTION":15.06397383,"ECCENTRICITY":0.000416,"INCLINATION":53.0536,"RA_OF_ASC_NODE":346.0565,"ARG_OF_PERICENTER":49.4432,"MEAN_ANOMALY":310.6918,"EPHEMERIS_TYPE":0,"CLASSIFICATION_TYPE":"U","NORAD_CAT_ID":47750,"ELEMENT_SET_NO":999,"REV_AT_EPOCH":14006,"BSTAR":0.00054163,"MEAN_MOTION_DOT":7.795e-5,"MEAN_MOTION_DDOT":0},{"OBJECT_NAME":"STARLINK-2168","OBJECT_ID":"2021-017AF","EPOCH":"2023-09-07T05:23:42.522144","MEAN_MOTION":15.06398986,"ECCENTRICITY":0.0001485,"INCLINATION":53.0545,"RA_OF_ASC_NODE":336.8154,"ARG_OF_PERICENTER":79.1507,"MEAN_ANOMALY":280.9649,"EPHEMERIS_TYPE":0,"CLASSIFICATION_TYPE":"U","NORAD_CAT_ID":47751,"ELEMENT_SET_NO":999,"REV_AT_EPOCH":14018,"BSTAR":-0.00010867,"MEAN_MOTION_DOT":-1.9e-5,"MEAN_MOTION_DDOT":0},{"OBJECT_NAME":"STARLINK-2169","OBJECT_ID":"2021-017AG","EPOCH":"2023-09-07T15:45:23.623488","MEAN_MOTION":15.06392142,"ECCENTRICITY":0.0001162,"INCLINATION":53.0548,"RA_OF_ASC_NODE":349.8756,"ARG_OF_PERICENTER":97.6351,"MEAN_ANOMALY":262.477,"EPHEMERIS_TYPE":0,"CLASSIFICATION_TYPE":"U","NORAD_CAT_ID":47752,"ELEMENT_SET_NO":999,"REV_AT_EPOCH":14008,"BSTAR":0.0016438,"MEAN_MOTION_DOT":0.00024282,"MEAN_MOTION_DDOT":0},{"OBJECT_NAME":"STARLINK-2170","OBJECT_ID":"2021-017AH","EPOCH":"2023-09-08T00:43:27.501024","MEAN_MOTION":15.06410828,"ECCENTRICITY":0.0001592,"INCLINATION":53.0544,"RA_OF_ASC_NODE":353.1969,"ARG_OF_PERICENTER":99.424,"MEAN_ANOMALY":260.6929,"EPHEMERIS_TYPE":0,"CLASSIFICATION_TYPE":"U","NORAD_CAT_ID":47753,"ELEMENT_SET_NO":999,"REV_AT_EPOCH":13938,"BSTAR":0.0016485,"MEAN_MOTION_DOT":0.00024365,"MEAN_MOTION_DDOT":0},{"OBJECT_NAME":"STARLINK-2171","OBJECT_ID":"2021-017AJ","EPOCH":"2023-09-08T00:00:59.908896","MEAN_MOTION":15.06405814,"ECCENTRICITY":0.0001186,"INCLINATION":53.0548,"RA_OF_ASC_NODE":353.3283,"ARG_OF_PERICENTER":67.7286,"MEAN_ANOMALY":292.3829,"EPHEMERIS_TYPE":0,"CLASSIFICATION_TYPE":"U","NORAD_CAT_ID":47754,"ELEMENT_SET_NO":999,"REV_AT_EPOCH":13938,"BSTAR":0.00062201,"MEAN_MOTION_DOT":8.997e-5,"MEAN_MOTION_DDOT":0},{"OBJECT_NAME":"STARLINK-2174","OBJECT_ID":"2021-017AL","EPOCH":"2023-09-07T23:55:41.597472","MEAN_MOTION":15.06409794,"ECCENTRICITY":0.0001187,"INCLINATION":53.0543,"RA_OF_ASC_NODE":353.3479,"ARG_OF_PERICENTER":101.4597,"MEAN_ANOMALY":258.6525,"EPHEMERIS_TYPE":0,"CLASSIFICATION_TYPE":"U","NORAD_CAT_ID":47756,"ELEMENT_SET_NO":999,"REV_AT_EPOCH":13938,"BSTAR":0.0021063,"MEAN_MOTION_DOT":0.0003124,"MEAN_MOTION_DDOT":0},{"OBJECT_NAME":"STARLINK-2175","OBJECT_ID":"2021-017AM","EPOCH":"2023-09-07T07:39:03.328128","MEAN_MOTION":15.06426943,"ECCENTRICITY":2.96e-5,"INCLINATION":53.055,"RA_OF_ASC_NODE":356.3893,"ARG_OF_PERICENTER":58.4003,"MEAN_ANOMALY":301.7015,"EPHEMERIS_TYPE":0,"CLASSIFICATION_TYPE":"U","NORAD_CAT_ID":47757,"ELEMENT_SET_NO":999,"REV_AT_EPOCH":13990,"BSTAR":0.0012408,"MEAN_MOTION_DOT":0.00018262,"MEAN_MOTION_DDOT":0},{"OBJECT_NAME":"STARLINK-2178","OBJECT_ID":"2021-017AQ","EPOCH":"2023-09-08T00:20:54.091680","MEAN_MOTION":15.06404965,"ECCENTRICITY":0.0001404,"INCLINATION":53.0551,"RA_OF_ASC_NODE":3.2698,"ARG_OF_PERICENTER":103.7743,"MEAN_ANOMALY":256.3403,"EPHEMERIS_TYPE":0,"CLASSIFICATION_TYPE":"U","NORAD_CAT_ID":47760,"ELEMENT_SET_NO":999,"REV_AT_EPOCH":13924,"BSTAR":0.0019898,"MEAN_MOTION_DOT":0.00029485,"MEAN_MOTION_DDOT":0}]
